[{"OBJECT_NAME":"STARLINK-6217","OBJECT_ID":"2023-088L","EPOCH":"2026-03-09T10:44:17.776608","MEAN_MOTION":15.02594659,"ECCENTRICITY":2.5e-5,"INCLINATION":43.0017,"RA_OF_ASC_NODE":108.7595,"ARG_OF_PERICENTER":325.32,"MEAN_ANOMALY":34.7627,"EPHEMERIS_TYPE":0,"CLASSIFICATION_TYPE":"U","NORAD_CAT_ID":57058,"ELEMENT_SET_NO":999,"REV_AT_EPOCH":15033,"BSTAR":0.00048557939,"MEAN_MOTION_DOT":6.372e-5,"MEAN_MOTION_DDOT":0},{"OBJECT_NAME":"COSMOS 2251 DEB","OBJECT_ID":"1993-036HX","EPOCH":"2026-03-09T21:31:03.673056","MEAN_MOTION":15.04193551,"ECCENTRICITY":0.00046843,"INCLINATION":74.0171,"RA_OF_ASC_NODE":332.1487,"ARG_OF_PERICENTER":332.3762,"MEAN_ANOMALY":27.7177,"EPHEMERIS_TYPE":0,"CLASSIFICATION_TYPE":"U","NORAD_CAT_ID":34036,"ELEMENT_SET_NO":999,"REV_AT_EPOCH":89876,"BSTAR":0.0040391987,"MEAN_MOTION_DOT":0.00056541,"MEAN_MOTION_DDOT":0}]
